NORAD_CAT_ID,OBJECT_NAME,OBJECT_TYPE,EPOCH,MEAN_MOTION,ECCENTRICITY,INCLINATION,RA_OF_ASC_NODE,ARG_OF_PERICENTER,MEAN_ANOMALY,BSTAR,MEAN_MOTION_DOT,MEAN_MOTION_DDOT,TLE_LINE0,TLE_LINE1,TLE_LINE2,SEMIMAJOR_AXIS,PERIOD,APOGEE,PERIGEE,DECAYED
52338.0,STARLINK-3815,PAYLOAD,2023-12-26 20:42:59,15.12930541,0.0001204,53.2162,202.3592,96.8383,263.2748,-1.1895e-05,-5.12e-06,0.0,0 STARLINK-3815,1 52338U 22045H   23360.86318855 -.00000512  00000-0 -11895-4 0  9990,2 52338  53.2162 202.3592 0001204  96.8383 263.2748 15.12930541 94511,6905.405,95.18,528.102,526.439,0.0
52338.0,STARLINK-3815,PAYLOAD,2023-12-27 18:54:45,15.12934545,0.0001146,53.2162,198.1802,90.0646,270.0479,1.6107e-05,-1.3e-07,0.0,0 STARLINK-3815,1 52338U 22045H   23361.78803190 -.00000013  00000-0  16107-4 0  9999,2 52338  53.2162 198.1802 0001146  90.0646 270.0479 15.12934545 94650,6905.393,95.179,528.05,526.467,0.0
52338.0,STARLINK-3815,PAYLOAD,2023-12-27 22:05:01,15.12934731,0.0001164,53.2164,197.5836,91.1943,268.9184,1.4232e-05,-4.6e-07,0.0,0 STARLINK-3815,1 52338U 22045H   23361.92015284 -.00000046  00000-0  14232-4 0  9997,2 52338  53.2164 197.5836 0001164  91.1943 268.9184 15.12934731 94672,6905.393,95.179,528.061,526.454,0.0
52338.0,STARLINK-3815,PAYLOAD,2023-12-28 13:56:17,15.12933037,0.0001142,53.2166,194.6019,93.8184,266.294,-3.0277e-05,-8.39e-06,0.0,0 STARLINK-3815,1 52338U 22045H   23362.58076180 -.00000839  00000-0 -30277-4 0  9990,2 52338  53.2166 194.6019 0001142  93.8184 266.2940 15.12933037 94777,6905.398,95.179,528.051,526.474,0.0
52338.0,STARLINK-3815,PAYLOAD,2023-12-28 20:16:48,15.12935443,0.0001143,53.2167,193.4086,91.4221,268.6904,-1.2817e-05,-5.28e-06,0.0,0 STARLINK-3815,1 52338U 22045H   23362.84500188 -.00000528  00000-0 -12817-4 0  9994,2 52338  53.2167 193.4086 0001143  91.4221 268.6904 15.12935443 94810,6905.391,95.179,528.045,526.466,0.0
52338.0,STARLINK-3815,PAYLOAD,2023-12-29 12:08:04,15.12934493,0.000122,53.2173,190.4242,89.6715,270.4419,-1.2142e-05,-5.16e-06,0.0,0 STARLINK-3815,1 52338U 22045H   23363.50560743 -.00000516  00000-0 -12142-4 0  9999,2 52338  53.2173 190.4242 0001220  89.6715 270.4419 15.12934493 94918,6905.393,95.179,528.101,526.416,0.0
52338.0,STARLINK-3815,PAYLOAD,2023-12-29 20:03:42,15.12936998,0.0001213,53.2174,188.9325,87.7649,272.3484,6.5092e-06,-1.84e-06,0.0,0 STARLINK-3815,1 52338U 22045H   23363.83590778 -.00000184  00000-0  65092-5 0  9999,2 52338  53.2174 188.9325 0001213  87.7649 272.3484 15.12936998 94960,6905.386,95.179,528.088,526.413,0.0
52338.0,STARLINK-3815,PAYLOAD,2023-12-30 19:50:37,15.12934145,0.0001237,53.2177,184.4567,81.5307,278.5827,-1.6763e-05,-5.99e-06,0.0,0 STARLINK-3815,1 52338U 22045H   23364.82681991 -.00000599  00000-0 -16763-4 0  9998,2 52338  53.2177 184.4567 0001237  81.5307 278.5827 15.12934145 95110,6905.394,95.179,528.114,526.405,0.0
52338.0,STARLINK-3815,PAYLOAD,2023-12-31 19:37:31,15.12941311,0.0001298,53.2182,179.9802,75.5322,284.5816,2.6222e-05,1.68e-06,0.0,0 STARLINK-3815,1 52338U 22045H   23365.81772137  .00000168  00000-0  26222-4 0  9992,2 52338  53.2182 179.9802 0001298  75.5322 284.5816 15.12941311 95268,6905.373,95.179,528.134,526.341,0.0
52338.0,STARLINK-3815,PAYLOAD,2024-01-01 11:28:47,15.12940442,0.0001329,53.2187,176.9965,73.306,286.8079,2.6198e-05,1.67e-06,0.0,0 STARLINK-3815,1 52338U 22045H   24001.47832629  .00000167  00000-0  26198-4 0  9996,2 52338  53.2187 176.9965 0001329  73.3060 286.8079 15.12940442 95361,6905.375,95.179,528.158,526.323,0.0
52338.0,STARLINK-3815,PAYLOAD,2024-01-01 17:49:17,15.12940002,0.0001286,53.2186,175.8023,75.6408,284.4728,2.3064e-05,1.11e-06,0.0,0 STARLINK-3815,1 52338U 22045H   24001.74256806  .00000111  00000-0  23064-4 0  9991,2 52338  53.2186 175.8023 0001286  75.6408 284.4728 15.12940002 95408,6905.377,95.179,528.13,526.354,0.0
52338.0,STARLINK-3815,PAYLOAD,2024-01-02 11:15:41,15.12941397,0.0001386,53.2187,172.52,69.3423,290.7719,-6.1373e-06,-4.09e-06,0.0,0 STARLINK-3815,1 52338U 22045H   24002.46923306 -.00000409  00000-0 -61373-5 0  9995,2 52338  53.2187 172.5200 0001386  69.3423 290.7719 15.12941397 95518,6905.372,95.179,528.194,526.28,0.0
52338.0,STARLINK-3815,PAYLOAD,2024-01-02 14:25:56,15.12940385,0.0001208,53.2183,171.9222,79.8394,280.2736,-1.4921e-05,-5.66e-06,0.0,0 STARLINK-3815,1 52338U 22045H   24002.60135388 -.00000566  00000-0 -14921-4 0  9996,2 52338  53.2183 171.9222 0001208  79.8394 280.2736 15.12940385 95538,6905.375,95.179,528.075,526.406,0.0
52338.0,STARLINK-3815,PAYLOAD,2024-01-02 17:36:12,15.12941076,0.0001216,53.2181,171.3252,79.1433,280.9698,-6.8118e-06,-4.21e-06,0.0,0 STARLINK-3815,1 52338U 22045H   24002.73347381 -.00000421  00000-0 -68118-5 0  9996,2 52338  53.2181 171.3252 0001216  79.1433 280.9698 15.12941076 95553,6905.373,95.179,528.078,526.399,0.0
52338.0,STARLINK-3815,PAYLOAD,2024-01-03 14:12:51,15.12937135,0.0001166,53.2181,167.4449,86.61,273.5027,-1.3654e-05,-5.43e-06,0.0,0 STARLINK-3815,1 52338U 22045H   24003.59226059 -.00000543  00000-0 -13654-4 0  9998,2 52338  53.2181 167.4449 0001166  86.6100 273.5027 15.12937135 95684,6905.385,95.179,528.056,526.445,0.0
52338.0,STARLINK-3815,PAYLOAD,2024-01-03 17:23:06,15.12937659,0.0001181,53.2185,166.8481,92.0463,268.0666,-9.9247e-06,-4.77e-06,0.0,0 STARLINK-3815,1 52338U 22045H   24003.72438078 -.00000477  00000-0 -99247-5 0  9998,2 52338  53.2185 166.8481 0001181  92.0463 268.0666 15.12937659 95709,6905.384,95.179,528.064,526.433,0.0
52338.0,STARLINK-3815,PAYLOAD,2024-01-04 13:59:45,15.12936235,0.0001185,53.2185,162.9676,96.8954,263.2175,-8.7393e-06,-4.56e-06,0.0,0 STARLINK-3815,1 52338U 22045H   24004.58316689 -.00000456  00000-0 -87393-5 0  9992,2 52338  53.2185 162.9676 0001185  96.8954 263.2175 15.12936235 95838,6905.388,95.179,528.071,526.435,0.0
52338.0,STARLINK-3815,PAYLOAD,2024-01-04 15:34:53,15.12936965,0.000119,53.2185,162.6694,93.8648,266.2482,-2.3509e-06,-3.42e-06,0.0,0 STARLINK-3815,1 52338U 22045H   24004.64922675 -.00000342  00000-0 -23509-5 0  9990,2 52338  53.2185 162.6694 0001190  93.8648 266.2482 15.12936965 95843,6905.386,95.179,528.073,526.429,0.0
52338.0,STARLINK-3815,PAYLOAD,2024-01-05 10:36:24,15.1293477,0.0001191,53.2188,159.0885,88.1557,271.9573,3.9979e-06,-2.28e-06,0.0,0 STARLINK-3815,1 52338U 22045H   24005.44195308 -.00000228  00000-0  39979-5 0  9994,2 52338  53.2188 159.0885 0001191  88.1557 271.9573 15.12934770 95964,6905.393,95.179,528.08,526.435,0.0
52338.0,STARLINK-3815,PAYLOAD,2024-01-05 13:46:39,15.12935207,0.0001156,53.2186,158.4912,89.0558,271.0569,3.958e-06,-2.29e-06,0.0,0 STARLINK-3815,1 52338U 22045H   24005.57407357 -.00000229  00000-0  39580-5 0  9997,2 52338  53.2186 158.4912 0001156  89.0558 271.0569 15.12935207 95982,6905.391,95.179,528.054,526.458,0.0
52338.0,STARLINK-3815,PAYLOAD,2024-01-05 16:56:55,15.12936104,0.0001175,53.2186,157.8945,88.8438,271.2691,1.0961e-05,-1.04e-06,0.0,0 STARLINK-3815,1 52338U 22045H   24005.70619359 -.00000104  00000-0  10961-4 0  9992,2 52338  53.2186 157.8945 0001175  88.8438 271.2691 15.12936104 96005,6905.388,95.179,528.065,526.442,0.0
52338.0,STARLINK-3815,PAYLOAD,2024-01-06 10:23:19,15.12930998,0.0001244,53.2188,154.6126,86.3366,273.777,-2.8768e-05,-8.12e-06,0.0,0 STARLINK-3815,1 52338U 22045H   24006.43286432 -.00000812  00000-0 -28768-4 0  9996,2 52338  53.2188 154.6126 0001244  86.3366 273.7770 15.12930998 96115,6905.404,95.179,528.128,526.41,0.0
52338.0,STARLINK-3815,PAYLOAD,2024-01-06 15:08:42,15.12933974,0.0001258,53.2187,153.7176,86.2359,273.8779,-7.7528e-06,-4.38e-06,0.0,0 STARLINK-3815,1 52338U 22045H   24006.63104328 -.00000438  00000-0 -77528-5 0  9994,2 52338  53.2187 153.7176 0001258  86.2359 273.8779 15.12933974 96145,6905.395,95.179,528.129,526.391,0.0
52338.0,STARLINK-3815,PAYLOAD,2024-01-07 13:20:29,15.12932723,0.0001272,53.2186,149.5398,83.6871,276.4268,-1.8292e-05,-6.26e-06,0.0,0 STARLINK-3815,1 52338U 22045H   24007.55589185 -.00000626  00000-0 -18292-4 0  9995,2 52338  53.2186 149.5398 0001272  83.6871 276.4268 15.12932723 96287,6905.399,95.179,528.142,526.385,0.0
52338.0,STARLINK-3815,PAYLOAD,2024-01-07 18:05:51,15.12942244,0.0001504,53.2189,148.6449,93.3061,266.8105,-4.8386e-05,-1.162e-05,0.0,0 STARLINK-3815,1 52338U 22045H   24007.75406844 -.00001162  00000-0 -48386-4 0  9990,2 52338  53.2189 148.6449 0001504  93.3061 266.8105 15.12942244 96310,6905.37,95.179,528.273,526.196,0.0
52338.0,STARLINK-3815,PAYLOAD,2024-01-08 09:57:08,15.12933739,0.0001313,53.2192,145.6608,77.6738,282.4403,-1.2558e-05,-5.24e-06,0.0,0 STARLINK-3815,1 52338U 22045H   24008.41467809 -.00000524  00000-0 -12558-4 0  9995,2 52338  53.2192 145.6608 0001313  77.6738 282.4403 15.12933739 96417,6905.396,95.179,528.167,526.354,0.0
52338.0,STARLINK-3815,PAYLOAD,2024-01-08 14:42:31,15.12933795,0.0001344,53.2187,144.7629,85.0991,275.0156,-1.5817e-05,-5.82e-06,0.0,0 STARLINK-3815,1 52338U 22045H   24008.61285911 -.00000582  00000-0 -15817-4 0  9994,2 52338  53.2187 144.7629 0001344  85.0991 275.0156 15.12933795 96440,6905.396,95.179,528.189,526.332,0.0
52338.0,STARLINK-3815,PAYLOAD,2024-01-08 16:17:39,15.12894667,0.0001597,53.219,144.464,79.3735,280.7439,0.00043282,7.415e-05,0.0,0 STARLINK-3815,1 52338U 22045H   24008.67892659  .00007415  00000-0  43282-3 0  9999,2 52338  53.2190 144.4640 0001597  79.3735 280.7439 15.12894667 96458,6905.515,95.182,528.482,526.277,0.0
52338.0,STARLINK-3815,PAYLOAD,2024-01-09 08:08:55,15.1293437,0.0001392,53.219,141.4798,77.0463,283.0687,-5.0277e-05,-1.196e-05,0.0,0 STARLINK-3815,1 52338U 22045H   24009.33952761 -.00001196  00000-0 -50277-4 0  9999,2 52338  53.2190 141.4798 0001392  77.0463 283.0687 15.12934370 96553,6905.394,95.179,528.22,526.298,0.0
52338.0,STARLINK-3815,PAYLOAD,2024-01-09 14:29:25,15.12941938,0.0001389,53.2187,140.2868,78.125,281.99,8.0069e-06,-1.57e-06,0.0,0 STARLINK-3815,1 52338U 22045H   24009.60376242 -.00000157  00000-0  80069-5 0  9991,2 52338  53.2187 140.2868 0001389  78.1250 281.9900 15.12941938 96593,6905.371,95.179,528.195,526.277,0.0
